[{"OBJECT_NAME":"STARLINK-3955","OBJECT_ID":"2022-051AE","EPOCH":"2026-03-09T11:57:09.429120","MEAN_MOTION":15.08841748,"ECCENTRICITY":0.00013273,"INCLINATION":53.2161,"RA_OF_ASC_NODE":134.9831,"ARG_OF_PERICENTER":93.7132,"MEAN_ANOMALY":266.4012,"EPHEMERIS_TYPE":0,"CLASSIFICATION_TYPE":"U","NORAD_CAT_ID":52561,"ELEMENT_SET_NO":999,"REV_AT_EPOCH":21134,"BSTAR":1.399644e-5,"MEAN_MOTION_DOT":-6.5e-7,"MEAN_MOTION_DDOT":0},{"OBJECT_NAME":"CZ-4B DEB","OBJECT_ID":"2017-034G","EPOCH":"2026-03-09T09:39:33.034752","MEAN_MOTION":14.99948696,"ECCENTRICITY":0.01166945,"INCLINATION":43.0793,"RA_OF_ASC_NODE":187.5221,"ARG_OF_PERICENTER":337.6416,"MEAN_ANOMALY":21.9365,"EPHEMERIS_TYPE":0,"CLASSIFICATION_TYPE":"U","NORAD_CAT_ID":43431,"ELEMENT_SET_NO":999,"REV_AT_EPOCH":46516,"BSTAR":0.0010902516,"MEAN_MOTION_DOT":0.00015701,"MEAN_MOTION_DDOT":0}]
